{
    "links": {
        "self": "http://www.neowsapp.com/rest/v1/neo/3843676?api_key=iIulBulltgU6a56xZRHN4H3l9WmuAYTsLGpBGhQ2"
    },
    "id": "3843676",
    "neo_reference_id": "3843676",
    "name": "(2019 QM5)",
    "designation": "2019 QM5",
    "nasa_jpl_url": "http://ssd.jpl.nasa.gov/sbdb.cgi?sstr=3843676",
    "absolute_magnitude_h": 21.6,
    "estimated_diameter": {
        "kilometers": {
            "estimated_diameter_min": 0.1272198785,
            "estimated_diameter_max": 0.2844722965
        },
        "meters": {
            "estimated_diameter_min": 127.2198785394,
            "estimated_diameter_max": 284.4722965033
        },
        "miles": {
            "estimated_diameter_min": 0.0790507431,
            "estimated_diameter_max": 0.1767628354
        },
        "feet": {
            "estimated_diameter_min": 417.3880663071,
            "estimated_diameter_max": 933.3080892598
        }
    },
    "is_potentially_hazardous_asteroid": false,
    "close_approach_data": [
        {
            "close_approach_date": "2018-02-12",
            "close_approach_date_full": "2018-Feb-12 08:31",
            "epoch_date_close_approach": 1518424260000,
            "relative_velocity": {
                "kilometers_per_second": "15.7991024871",
                "kilometers_per_hour": "56876.768953614",
                "miles_per_hour": "35341.0123534275"
            },
            "miss_distance": {
                "astronomical": "0.3867851516",
                "lunar": "150.4594239724",
                "kilometers": "57862234.826987092",
                "miles": "35953925.5158101896"
            },
            "orbiting_body": "Earth"
        },
        {
            "close_approach_date": "2019-09-19",
            "close_approach_date_full": "2019-Sep-19 15:34",
            "epoch_date_close_approach": 1568907240000,
            "relative_velocity": {
                "kilometers_per_second": "17.4606330992",
                "kilometers_per_hour": "62858.2791570368",
                "miles_per_hour": "39057.6901795488"
            },
            "miss_distance": {
                "astronomical": "0.1386678395",
                "lunar": "53.9417895655",
                "kilometers": "20744413.426701865",
                "miles": "12889980.787001137"
            },
            "orbiting_body": "Earth"
        },
        {
            "close_approach_date": "2021-12-12",
            "close_approach_date_full": "2021-Dec-12 12:57",
            "epoch_date_close_approach": 1639313820000,
            "relative_velocity": {
                "kilometers_per_second": "17.9511809484",
                "kilometers_per_hour": "64624.2514144034",
                "miles_per_hour": "40154.9966635775"
            },
            "miss_distance": {
                "astronomical": "0.0243038518",
                "lunar": "9.4541983502",
                "kilometers": "3635804.462075666",
                "miles": "2259184.1329735508"
            },
            "orbiting_body": "Mars"
        }
    ],
    "orbital_data": {
        "orbit_id": "6",
        "orbit_determination_date": "2019-09-21 05:55:51",
        "first_observation_date": "2019-08-28",
        "last_observation_date": "2019-09-21",
        "data_arc_in_days": 24,
        "observations_used": 67,
        "orbit_uncertainty": "7",
        "minimum_orbit_intersection": ".065333",
        "jupiter_tisserand_invariant": "4.321",
        "epoch_osculation": "2459000.5",
        "eccentricity": ".6474320480654495",
        "semi_major_axis": "1.48050668834087",
        "inclination": "7.252250195513499",
        "ascending_node_longitude": "226.3069130134674",
        "orbital_period": "657.9819611600194",
        "perihelion_distance": ".5219792109337443",
        "perihelion_argument": "226.1070980259335",
        "aphelion_distance": "2.439034165747996",
        "perihelion_time": "2458796.091890242294",
        "mean_anomaly": "111.837290163762",
        "mean_motion": ".5471274613141697",
        "equinox": "J2000",
        "orbit_class": {
            "orbit_class_type": "APO",
            "orbit_class_description": "Near-Earth asteroid orbits which cross the Earth’s orbit similar to that of 1862 Apollo",
            "orbit_class_range": "a (semi-major axis) > 1.0 AU; q (perihelion) < 1.017 AU"
        }
    },
    "is_sentry_object": false
}